ASTROCAST-0103          
1 47487U 21006CC  26068.70056502  .00087857  00000+0  63760-3 0  9995
2 47487  97.2627 138.0845 0005706 147.8600 212.3013 15.73114428285528
STARLINK-11485 [DTC]    
1 62229U 24231M   26068.56718461  .00197796  00000+0  15953-2 0  9996
2 62229  53.1574 101.7656 0001931  37.3684 322.7468 15.69764195 73396
