[{"OBJECT_NAME":"ASTROCAST-0103","OBJECT_ID":"2021-006CC","EPOCH":"2026-03-09T16:48:48.818592","MEAN_MOTION":15.73114428,"ECCENTRICITY":0.00057063,"INCLINATION":97.2627,"RA_OF_ASC_NODE":138.0845,"ARG_OF_PERICENTER":147.86,"MEAN_ANOMALY":212.3013,"EPHEMERIS_TYPE":0,"CLASSIFICATION_TYPE":"U","NORAD_CAT_ID":47487,"ELEMENT_SET_NO":999,"REV_AT_EPOCH":28552,"BSTAR":0.00063759595,"MEAN_MOTION_DOT":0.00087857,"MEAN_MOTION_DDOT":0},{"OBJECT_NAME":"STARLINK-11485 [DTC]","OBJECT_ID":"2024-231M","EPOCH":"2026-03-09T13:36:44.750304","MEAN_MOTION":15.69764195,"ECCENTRICITY":0.0001931,"INCLINATION":53.1574,"RA_OF_ASC_NODE":101.7656,"ARG_OF_PERICENTER":37.3684,"MEAN_ANOMALY":322.7468,"EPHEMERIS_TYPE":0,"CLASSIFICATION_TYPE":"U","NORAD_CAT_ID":62229,"ELEMENT_SET_NO":999,"REV_AT_EPOCH":7339,"BSTAR":0.0015953,"MEAN_MOTION_DOT":0.00197796,"MEAN_MOTION_DDOT":0}]
